[Satellite]
VERSION=1.1
NAME=AAUSAT-II
NICKNAME=AAUSAT-II
TLE1=1 32788U 08021F   19317.52241229  .00000702  00000-0  69347-4 0  9999
TLE2=2 32788  97.4940 326.6991 0013214  67.3624 292.8993 14.94854371627001
STATUS=0
